{
  "type": "FeatureCollection",
  "features": [
    {
      "type": "Feature",
      "properties": {
        "norad_id": 35165,
        "name": "FENGYUN 1C DEB",
        "group": "fengyun-1c-debris",
        "lat": 4.355310817071257,
        "lon": -106.42397698983218,
        "alt_km": 783.2010825915131,
        "timestamp": "2025-12-07T03:52:32.785031+00:00",
        "meta_object_name": "FENGYUN 1C DEB",
        "meta_object_id": "1999-025DMV",
        "meta_epoch": "2025-11-30T05:14:00.190464",
        "meta_mean_motion": 14.33570134,
        "meta_eccentricity": 0.00218891,
        "meta_inclination": 98.8778,
        "meta_ra_of_asc_node": 65.7738,
        "meta_arg_of_pericenter": 100.7376,
        "meta_mean_anomaly": 259.6273,
        "meta_ephemeris_type": 0,
        "meta_classification_type": "U",
        "meta_norad_cat_id": 35165,
        "meta_element_set_no": 999,
        "meta_rev_at_epoch": 89541,
        "meta_bstar": 0.0024382815,
        "meta_mean_motion_dot": 6.727e-05,
        "meta_mean_motion_ddot": 0,
        "tle_line1": "1 35165U 99025DMV 25334.21805776  .00006727  00000+0  24383-2 0  9991",
        "tle_line2": "2 35165  98.8778  65.7738 0021889 100.7376 259.6273 14.33570134895419"
      },
      "geometry": {
        "type": "Point",
        "coordinates": [
          -106.42397698983218,
          4.355310817071257
        ]
      }
    },
    {
      "type": "Feature",
      "properties": {
        "norad_id": 35167,
        "name": "FENGYUN 1C DEB",
        "group": "fengyun-1c-debris",
        "lat": -6.084628487047391,
        "lon": -24.581984831987985,
        "alt_km": 901.7856709744201,
        "timestamp": "2025-12-07T03:52:32.785041+00:00",
        "meta_object_name": "FENGYUN 1C DEB",
        "meta_object_id": "1999-025DMX",
        "meta_epoch": "2025-11-27T17:22:23.212128",
        "meta_mean_motion": 14.31084388,
        "meta_eccentricity": 0.02289339,
        "meta_inclination": 98.4496,
        "meta_ra_of_asc_node": 325.3238,
        "meta_arg_of_pericenter": 248.7447,
        "meta_mean_anomaly": 108.915,
        "meta_ephemeris_type": 0,
        "meta_classification_type": "U",
        "meta_norad_cat_id": 35167,
        "meta_element_set_no": 999,
        "meta_rev_at_epoch": 69805,
        "meta_bstar": 0.00055665644,
        "meta_mean_motion_dot": 1.904e-05,
        "meta_mean_motion_ddot": 0,
        "tle_line1": "1 35167U 99025DMX 25331.72387977  .00001904  00000+0  55666-3 0  9995",
        "tle_line2": "2 35167  98.4496 325.3238 0228933 248.7447 108.9150 14.31084388698055"
      },
      "geometry": {
        "type": "Point",
        "coordinates": [
          -24.581984831987985,
          -6.084628487047391
        ]
      }
    },
    {
      "type": "Feature",
      "properties": {
        "norad_id": 35169,
        "name": "FENGYUN 1C DEB",
        "group": "fengyun-1c-debris",
        "lat": -30.616645620950532,
        "lon": 38.71962359093617,
        "alt_km": 695.2492111779238,
        "timestamp": "2025-12-07T03:52:32.785052+00:00",
        "meta_object_name": "FENGYUN 1C DEB",
        "meta_object_id": "1999-025DMZ",
        "meta_epoch": "2025-12-05T11:24:48.463488",
        "meta_mean_motion": 14.58604827,
        "meta_eccentricity": 0.01525013,
        "meta_inclination": 99.1294,
        "meta_ra_of_asc_node": 222.329,
        "meta_arg_of_pericenter": 129.6073,
        "meta_mean_anomaly": 231.8702,
        "meta_ephemeris_type": 0,
        "meta_classification_type": "U",
        "meta_norad_cat_id": 35169,
        "meta_element_set_no": 999,
        "meta_rev_at_epoch": 65674,
        "meta_bstar": 0.00095565714,
        "meta_mean_motion_dot": 5.168e-05,
        "meta_mean_motion_ddot": 0,
        "tle_line1": "1 35169U 99025DMZ 25339.47556092  .00005168  00000+0  95566-3 0  9992",
        "tle_line2": "2 35169  99.1294 222.3290 0152501 129.6073 231.8702 14.58604827656748"
      },
      "geometry": {
        "type": "Point",
        "coordinates": [
          38.71962359093617,
          -30.616645620950532
        ]
      }
    },
    {
      "type": "Feature",
      "properties": {
        "norad_id": 35171,
        "name": "FENGYUN 1C DEB",
        "group": "fengyun-1c-debris",
        "lat": 65.97029315295788,
        "lon": -26.503297404488013,
        "alt_km": 979.0291443897277,
        "timestamp": "2025-12-07T03:52:32.785062+00:00",
        "meta_object_name": "FENGYUN 1C DEB",
        "meta_object_id": "1999-025DNB",
        "meta_epoch": "2025-12-06T03:14:27.009312",
        "meta_mean_motion": 13.94919296,
        "meta_eccentricity": 0.01375813,
        "meta_inclination": 99.0086,
        "meta_ra_of_asc_node": 131.6514,
        "meta_arg_of_pericenter": 336.9909,
        "meta_mean_anomaly": 22.5128,
        "meta_ephemeris_type": 0,
        "meta_classification_type": "U",
        "meta_norad_cat_id": 35171,
        "meta_element_set_no": 999,
        "meta_rev_at_epoch": 88466,
        "meta_bstar": 0.0026431679,
        "meta_mean_motion_dot": 3.801e-05,
        "meta_mean_motion_ddot": 0,
        "tle_line1": "1 35171U 99025DNB 25340.13503483  .00003801  00000+0  26432-2 0  9993",
        "tle_line2": "2 35171  99.0086 131.6514 0137581 336.9909  22.5128 13.94919296884661"
      },
      "geometry": {
        "type": "Point",
        "coordinates": [
          -26.503297404488013,
          65.97029315295788
        ]
      }
    },
    {
      "type": "Feature",
      "properties": {
        "norad_id": 35173,
        "name": "FENGYUN 1C DEB",
        "group": "fengyun-1c-debris",
        "lat": 37.91062177273364,
        "lon": -119.37853738982056,
        "alt_km": 1071.9502364555801,
        "timestamp": "2025-12-07T03:52:32.785073+00:00",
        "meta_object_name": "FENGYUN 1C DEB",
        "meta_object_id": "1999-025DND",
        "meta_epoch": "2025-12-06T00:11:15.437184",
        "meta_mean_motion": 13.37277281,
        "meta_eccentricity": 0.04906763,
        "meta_inclination": 99.7871,
        "meta_ra_of_asc_node": 51.7832,
        "meta_arg_of_pericenter": 229.9973,
        "meta_mean_anomaly": 125.7105,
        "meta_ephemeris_type": 0,
        "meta_classification_type": "U",
        "meta_norad_cat_id": 35173,
        "meta_element_set_no": 999,
        "meta_rev_at_epoch": 65739,
        "meta_bstar": 0.0040782912,
        "meta_mean_motion_dot": 4.225e-05,
        "meta_mean_motion_ddot": 0,
        "tle_line1": "1 35173U 99025DND 25340.00781756  .00004225  00000+0  40783-2 0  9998",
        "tle_line2": "2 35173  99.7871  51.7832 0490676 229.9973 125.7105 13.37277281657393"
      },
      "geometry": {
        "type": "Point",
        "coordinates": [
          -119.37853738982056,
          37.91062177273364
        ]
      }
    },
    {
      "type": "Feature",
      "properties": {
        "norad_id": 35174,
        "name": "FENGYUN 1C DEB",
        "group": "fengyun-1c-debris",
        "lat": -10.756647999044068,
        "lon": -43.65912585932971,
        "alt_km": 667.6220831656929,
        "timestamp": "2025-12-07T03:52:32.785083+00:00",
        "meta_object_name": "FENGYUN 1C DEB",
        "meta_object_id": "1999-025DNE",
        "meta_epoch": "2025-11-20T15:53:09.659040",
        "meta_mean_motion": 14.97261972,
        "meta_eccentricity": 0.01569814,
        "meta_inclination": 98.9653,
        "meta_ra_of_asc_node": 295.6935,
        "meta_arg_of_pericenter": 254.7539,
        "meta_mean_anomaly": 103.6277,
        "meta_ephemeris_type": 0,
        "meta_classification_type": "U",
        "meta_norad_cat_id": 35174,
        "meta_element_set_no": 999,
        "meta_rev_at_epoch": 89835,
        "meta_bstar": 0.0019136785,
        "meta_mean_motion_dot": 0.00028569,
        "meta_mean_motion_ddot": 0,
        "tle_line1": "1 35174U 99025DNE 25324.66191735  .00028569  00000+0  19137-2 0  9991",
        "tle_line2": "2 35174  98.9653 295.6935 0156981 254.7539 103.6277 14.97261972898353"
      },
      "geometry": {
        "type": "Point",
        "coordinates": [
          -43.65912585932971,
          -10.756647999044068
        ]
      }
    },
    {
      "type": "Feature",
      "properties": {
        "norad_id": 35175,
        "name": "FENGYUN 1C DEB",
        "group": "fengyun-1c-debris",
        "lat": -80.85977029424016,
        "lon": 99.98918075152099,
        "alt_km": 792.6384414522017,
        "timestamp": "2025-12-07T03:52:32.785094+00:00",
        "meta_object_name": "FENGYUN 1C DEB",
        "meta_object_id": "1999-025DNF",
        "meta_epoch": "2025-12-05T18:31:05.005344",
        "meta_mean_motion": 14.21283769,
        "meta_eccentricity": 0.00570913,
        "meta_inclination": 98.5747,
        "meta_ra_of_asc_node": 348.3184,
        "meta_arg_of_pericenter": 300.751,
        "meta_mean_anomaly": 58.8052,
        "meta_ephemeris_type": 0,
        "meta_classification_type": "U",
        "meta_norad_cat_id": 35175,
        "meta_element_set_no": 999,
        "meta_rev_at_epoch": 61136,
        "meta_bstar": 0.00064889762,
        "meta_mean_motion_dot": 1.395e-05,
        "meta_mean_motion_ddot": 0,
        "tle_line1": "1 35175U 99025DNF 25339.77158571  .00001395  00000+0  64890-3 0  9996",
        "tle_line2": "2 35175  98.5747 348.3184 0057091 300.7510  58.8052 14.21283769611360"
      },
      "geometry": {
        "type": "Point",
        "coordinates": [
          99.98918075152099,
          -80.85977029424016
        ]
      }
    }
  ]
}